MEAN_MOTION;ECCENTRICITY;INCLINATION;RA_OF_ASC_NODE;ARG_OF_PERICENTER;MEAN_ANOMALY;BSTAR;MEAN_MOTION_DOT;MEAN_MOTION_DDOT;TYPE
14.34219913;0.0002035;86.3943;116.0467;81.0759;279.0667;2.2213E-5;8.2E-7;0;Iridium
14.34219995;0.0002017;86.3942;115.784;81.275;278.8674;2.3455E-5;8.5E-7;0;Iridium
14.34219999;0.0002015;86.3942;115.7549;81.2753;278.8671;2.3021E-5;8.4E-7;0;Iridium
14.34220162;0.0001996;86.3941;115.3463;81.5927;278.5495;2.7233E-5;9.6E-7;0;Iridium
14.34220262;0.0001988;86.394;115.1129;81.6927;278.4494;2.8673E-5;1.0E-6;0;Iridium
14.34220388;0.0001962;86.3939;114.6168;81.9404;278.2015;2.8099E-5;9.8E-7;0;Iridium
14.34220388;0.0001962;86.3939;114.6168;81.9404;278.2015;2.8099E-5;9.8E-7;0;Iridium
14.34220388;0.0001962;86.3939;114.6168;81.9404;278.2015;2.8099E-5;9.8E-7;0;Iridium
14.34220568;0.0001929;86.3936;113.9164;82.5436;277.5979;2.4189E-5;8.8E-7;0;Iridium
14.34220608;0.0001921;86.3936;113.7413;82.7413;277.4001;2.366E-5;8.6E-7;0;Iridium
14.34220641;0.0001919;86.3936;113.6829;82.8097;277.3317;2.3137E-5;8.5E-7;0;Iridium
14.34220812;0.0001902;86.3935;113.3035;83.2287;276.9126;2.3598E-5;8.6E-7;0;Iridium
14.34220821;0.0001899;86.3935;113.2743;83.2292;276.912;2.2993E-5;8.4E-7;0;Iridium
14.34220834;0.0001897;86.3935;113.2451;83.2474;276.8937;2.2979E-5;8.4E-7;0;Iridium
14.34221077;0.000186;86.3933;112.7781;83.1921;276.9486;2.3455E-5;8.5E-7;0;Iridium
14.34221223;0.0001835;86.3932;112.4279;84.1557;275.9848;2.3171E-5;8.5E-7;0;Iridium
14.34221245;0.0001838;86.3932;112.3111;84.5202;275.6203;2.2657E-5;8.3E-7;0;Iridium
14.34221291;0.0001825;86.3932;112.0484;84.8089;275.3315;2.001E-5;7.6E-7;0;Iridium
14.34221275;0.0001821;86.3931;111.8733;84.9735;275.1668;1.4605E-5;6.1E-7;0;Iridium
14.34221319;0.0001811;86.3931;111.6106;85.4464;274.6939;1.3109E-5;5.6E-7;0;Iridium
14.34221364;0.0001808;86.393;111.4354;85.6712;274.469;1.4464E-5;6.0E-7;0;Iridium
14.34221378;0.0001801;86.393;111.2311;86.2092;273.931;1.3949E-5;5.9E-7;0;Iridium
14.34214987;0.0001759;86.393;111.0267;83.7652;276.3744;1.4336E-5;6.0E-7;0;Iridium
14.34215395;0.0001783;86.3929;110.764;86.7522;273.3878;1.564E-5;6.4E-7;0;Iridium
14.34215368;0.0001781;86.3928;110.6181;86.9358;273.2041;5.9923E-7;2.1E-7;0;Iridium
14.34215404;0.0001776;86.3928;110.3553;87.4177;272.7222;1.8004E-6;2.5E-7;0;Iridium
14.34215402;0.0001776;86.3928;110.3261;87.4526;272.6873;1.7768E-6;2.5E-7;0;Iridium
14.34215419;0.0001773;86.3927;110.1802;87.7517;272.3882;2.9227E-6;2.8E-7;0;Iridium
14.34215513;0.0001768;86.3927;109.9174;88.2457;271.8942;1.1882E-5;5.3E-7;0;Iridium
14.34215653;0.0001765;86.3926;109.5087;89.0983;271.0415;1.8135E-5;7.1E-7;0;Iridium
14.34215692;0.0001767;86.3925;109.3628;89.307;270.8328;1.9354E-5;7.4E-7;0;Iridium
14.34215758;0.0001764;86.3925;109.1001;89.7504;270.3894;1.9545E-5;7.5E-7;0;Iridium
14.3421583;0.0001766;86.3924;108.9249;89.9893;270.1505;2.1325E-5;7.9E-7;0;Iridium
14.34215906;0.0001765;86.3924;108.6914;90.5876;269.5522;2.2127E-5;8.2E-7;0;Iridium
14.34215965;0.0001765;86.3924;108.5162;90.7944;269.3454;2.2693E-5;8.3E-7;0;Iridium
14.34216071;0.0001764;86.3924;108.2827;91.3902;268.7496;2.4436E-5;8.8E-7;0;Iridium
14.34216108;0.0001768;86.3924;108.1367;91.6206;268.5193;2.3955E-5;8.7E-7;0;Iridium
14.34216171;0.0001768;86.3924;107.8448;92.114;268.0258;2.0625E-5;7.8E-7;0;Iridium
14.34216246;0.0001772;86.3924;107.6696;92.3972;267.7426;2.1751E-5;8.1E-7;0;Iridium
14.34216272;0.0001772;86.3924;107.4361;92.7939;267.346;1.7886E-5;7.0E-7;0;Iridium
14.34216274;0.0001772;86.3924;107.4069;92.8193;267.3205;1.739E-5;6.8E-7;0;Iridium
14.34216296;0.0001775;86.3924;107.2609;93.0184;267.1215;1.609E-5;6.5E-7;0;Iridium
14.34216319;0.0001776;86.3924;106.9982;93.562;266.5779;1.2263E-5;5.4E-7;0;Iridium
14.34216337;0.0001781;86.3924;106.8522;93.764;266.376;1.1668E-5;5.2E-7;0;Iridium
14.34216363;0.0001782;86.3924;106.7938;93.9398;266.2001;1.1669E-5;5.2E-7;0;Iridium
14.34216446;0.0001788;86.3924;106.4143;94.5586;265.5814;1.1978E-5;5.3E-7;0;Iridium
14.34216447;0.000179;86.3924;106.3559;94.6841;265.4559;1.0967E-5;5.0E-7;0;Iridium
14.34216469;0.0001791;86.3924;106.1807;94.9034;265.2366;1.0361E-5;4.9E-7;0;Iridium
14.34216513;0.0001798;86.3924;106.0056;95.1115;265.0286;1.134E-5;5.2E-7;0;Iridium
14.34216581;0.0001801;86.3924;105.772;95.4863;264.6539;1.3051E-5;5.6E-7;0;Iridium
14.34216628;0.0001807;86.3924;105.5968;95.7047;264.4355;1.4258E-5;6.0E-7;0;Iridium
14.342167;0.0001813;86.3924;105.3633;96.1984;263.9418;1.5936E-5;6.4E-7;0;Iridium
14.34216765;0.0001821;86.3924;105.1589;96.5105;263.6299;1.7584E-5;6.9E-7;0;Iridium
14.34216809;0.0001826;86.3924;104.9254;96.8553;263.2851;1.8219E-5;7.1E-7;0;Iridium
14.34216836;0.0001837;86.3924;104.7502;96.9452;263.1952;1.8451E-5;7.1E-7;0;Iridium
14.34216884;0.0001845;86.3924;104.5167;97.2169;262.9236;1.9234E-5;7.4E-7;0;Iridium
14.34216926;0.000185;86.3924;104.3416;97.3248;262.8159;1.9857E-5;7.5E-7;0;Iridium
14.34217001;0.0001859;86.3925;104.0788;97.689;262.4517;2.1145E-5;7.9E-7;0;Iridium
14.34217052;0.0001866;86.3925;103.9037;97.8354;262.3053;2.1793E-5;8.1E-7;0;Iridium
14.34217112;0.000187;86.3925;103.6702;98.1284;262.0124;2.1974E-5;8.1E-7;0;Iridium
14.34217164;0.0001882;86.3926;103.4951;98.3387;261.8022;2.2389E-5;8.2E-7;0;Iridium
14.34217222;0.000189;86.3926;103.2616;98.4477;261.6933;2.1873E-5;8.1E-7;0;Iridium
14.34217281;0.0001902;86.3926;103.0865;98.8152;261.3259;2.2371E-5;8.2E-7;0;Iridium
14.34217361;0.0001912;86.3927;102.8237;98.9314;261.2098;2.1635E-5;8.0E-7;0;Iridium
14.34217412;0.0001922;86.3927;102.6485;99.1457;260.9957;2.0933E-5;7.8E-7;0;Iridium
14.34217557;0.0001952;86.3928;102.24;99.9281;260.2135;2.0309E-5;7.7E-7;0;Iridium
14.34217619;0.0001958;86.3928;102.0064;99.7877;260.354;1.8706E-5;7.2E-7;0;Iridium
14.34217721;0.0001981;86.3929;101.5977;100.2925;259.8494;1.6671E-5;6.6E-7;0;Iridium
14.34217776;0.0001996;86.3929;101.3933;100.4463;259.6958;1.5685E-5;6.4E-7;0;Iridium
14.34217804;0.0002006;86.393;101.1598;100.6203;259.5219;1.3757E-5;5.8E-7;0;Iridium
14.34217804;0.0002006;86.393;101.1598;100.6203;259.5219;1.3757E-5;5.8E-7;0;Iridium
14.3421784;0.0002017;86.393;100.9847;100.7545;259.3878;1.3173E-5;5.7E-7;0;Iridium
14.34217945;0.0002034;86.3931;100.7511;101.1841;258.9583;1.5151E-5;6.2E-7;0;Iridium
14.34217983;0.0002048;86.3931;100.576;101.226;258.9166;1.5077E-5;6.2E-7;0;Iridium
14.34218066;0.0002054;86.3932;100.3425;101.0217;259.1209;1.6626E-5;6.6E-7;0;Iridium
14.34218121;0.0002068;86.3932;100.1382;100.9373;259.2056;1.7074E-5;6.8E-7;0;Iridium
14.34218169;0.0002077;86.3933;99.9339;100.8796;259.2634;1.8263E-5;7.1E-7;0;Iridium
14.34218169;0.0002077;86.3933;99.9339;100.8796;259.2634;1.8263E-5;7.1E-7;0;Iridium
14.3421822;0.0002089;86.3933;99.7296;100.8492;259.2939;1.8867E-5;7.3E-7;0;Iridium
14.34218312;0.0002103;86.3934;99.4961;100.984;259.1592;2.1577E-5;8.0E-7;0;Iridium
14.34218423;0.0002123;86.3935;99.0875;100.9917;259.1518;2.3303E-5;8.5E-7;0;Iridium
14.34218477;0.0002138;86.3935;98.8832;100.9235;259.2201;2.3539E-5;8.6E-7;0;Iridium
14.34218539;0.0002153;86.3936;98.679;101.0605;259.0832;2.4612E-5;8.9E-7;0;Iridium
14.34218624;0.0002161;86.3936;98.4747;100.7421;259.4018;2.5601E-5;9.1E-7;0;Iridium
14.34218722;0.0002203;86.3936;98.2412;101.5959;258.5484;2.7139E-5;9.6E-7;0;Iridium
14.34218722;0.0002203;86.3936;98.2412;101.5959;258.5484;2.7139E-5;9.6E-7;0;Iridium
14.34218807;0.0002214;86.3936;98.0661;101.5405;258.6039;2.8264E-5;9.9E-7;0;Iridium
14.34218934;0.000223;86.3937;97.8326;101.5708;258.5738;3.0488E-5;1.05E-6;0;Iridium
14.3421901;0.0002247;86.3937;97.6284;101.5083;258.6366;2.9902E-5;1.04E-6;0;Iridium
14.34219077;0.000226;86.3938;97.4241;101.3889;258.7561;2.9582E-5;1.03E-6;0;Iridium
14.34219151;0.0002277;86.3939;97.2199;101.193;258.9522;2.8252E-5;9.9E-7;0;Iridium
14.3421922;0.0002284;86.394;97.0157;101.0247;259.1206;2.757E-5;9.7E-7;0;Iridium
14.3421928;0.0002301;86.3941;96.8114;100.7132;259.4323;2.5848E-5;9.2E-7;0;Iridium
14.3421932;0.0002316;86.3942;96.5779;100.536;259.6097;2.3091E-5;8.4E-7;0;Iridium
14.3421932;0.0002316;86.3942;96.5779;100.536;259.6097;2.3091E-5;8.4E-7;0;Iridium
14.34219347;0.0002333;86.3943;96.3736;100.4297;259.7162;2.0189E-5;7.6E-7;0;Iridium
14.34219399;0.0002344;86.3943;96.1694;100.3344;259.8116;1.9214E-5;7.4E-7;0;Iridium
14.34219461;0.0002361;86.3944;95.9651;100.1697;259.9765;1.8085E-5;7.0E-7;0;Iridium
14.34219517;0.000237;86.3945;95.7609;99.8684;260.2779;1.7548E-5;6.9E-7;0;Iridium
14.34219592;0.0002382;86.3945;95.5567;99.596;260.5505;1.7722E-5;6.9E-7;0;Iridium
14.3421964;0.0002393;86.3947;95.3232;99.301;260.8456;1.6725E-5;6.7E-7;0;Iridium
14.3421964;0.0002393;86.3947;95.3232;99.301;260.8456;1.6725E-5;6.7E-7;0;Iridium
14.3421964;0.0002393;86.3947;95.3232;99.301;260.8456;1.6725E-5;6.7E-7;0;Iridium
14.342197;0.0002409;86.3947;95.1191;99.1754;260.9714;1.6789E-5;6.7E-7;0;Iridium
14.34219786;0.0002419;86.3948;94.9148;99.0132;261.1338;1.8307E-5;7.1E-7;0;Iridium
14.34219832;0.0002439;86.3949;94.7106;99.0165;261.1307;1.7981E-5;7.0E-7;0;Iridium
14.34219885;0.0002446;86.3949;94.5063;98.7989;261.3484;1.8543E-5;7.2E-7;0;Iridium
14.34219935;0.0002462;86.395;94.3021;98.6335;261.514;1.8567E-5;7.2E-7;0;Iridium
14.34219962;0.000247;86.395;94.0979;98.2514;261.8962;1.8506E-5;7.2E-7;0;Iridium
14.34220018;0.0002484;86.3951;93.8645;98.0352;262.1125;1.8753E-5;7.2E-7;0;Iridium
14.34206607;0.0002897;86.3992;93.6556;88.0165;272.1363;1.9567E-5;7.5E-7;0;Iridium
14.34216423;0.0002533;86.3944;93.4573;95.4619;264.6865;2.0237E-5;7.6E-7;0;Iridium
14.34215352;0.0002533;86.3953;93.2519;97.0176;263.1308;2.1561E-5;8.0E-7;0;Iridium
14.34215598;0.0002564;86.3954;92.8434;97.0103;263.1385;3.7117E-5;1.24E-6;0;Iridium
14.34215671;0.0002577;86.3955;92.6392;96.3778;263.7711;3.263E-5;1.11E-6;0;Iridium
14.34215598;0.0002581;86.3956;92.4059;96.1608;263.9882;1.8915E-5;7.3E-7;0;Iridium
14.34215598;0.0002581;86.3956;92.4059;96.1608;263.9882;1.8915E-5;7.3E-7;0;Iridium
14.34215667;0.0002592;86.3956;92.2017;95.8652;264.2839;1.9271E-5;7.4E-7;0;Iridium
14.34215752;0.00026;86.3957;91.9684;95.6811;264.4681;2.1485E-5;8.0E-7;0;Iridium
